CCSDS_OMM_VERS,COMMENT,CREATION_DATE,ORIGINATOR,OBJECT_NAME,OBJECT_ID,CENTER_NAME,REF_FRAME,TIME_SYSTEM,MEAN_ELEMENT_THEORY,EPOCH,MEAN_MOTION,ECCENTRICITY,INCLINATION,RA_OF_ASC_NODE,ARG_OF_PERICENTER,MEAN_ANOMALY,EPHEMERIS_TYPE,CLASSIFICATION_TYPE,NORAD_CAT_ID,ELEMENT_SET_NO,REV_AT_EPOCH,BSTAR,MEAN_MOTION_DOT,MEAN_MOTION_DDOT,SEMIMAJOR_AXIS,PERIOD,APOAPSIS,PERIAPSIS,OBJECT_TYPE,RCS_SIZE,COUNTRY_CODE,LAUNCH_DATE,SITE,DECAY_DATE,FILE,GP_ID,TLE_LINE0,TLE_LINE1,TLE_LINE2
2,GENERATED VIA SPACE-TRACK.ORG API,2021-02-22T02:16:06,18 SPCS,STARLINK-1098,2020-001D,EARTH,TEME,UTC,SGP4,2021-02-21T14:20:51.966816,15.06403518,0.0002098,53.0568,336.0575,74.6366,285.4855,0,U,44917,999,6220,0.00012312,1.553e-05,0,6925.338,95.592,548.656,545.75,PAYLOAD,LARGE,US,2020-01-07,AFETR,,2968705,172213351,0 STARLINK-1098,1 44917U 20001D   21052.59782369  .00001553  00000-0  12312-3 0  9993,2 44917  53.0568 336.0575 0002098  74.6366 285.4855 15.06403518 62204
2,GENERATED VIA SPACE-TRACK.ORG API,2021-02-21T22:36:13,18 SPCS,STARLINK-1098,2020-001D,EARTH,TEME,UTC,SGP4,2021-02-21T14:20:51.966816,15.06403518,0.0002098,53.0568,336.0575,74.6366,285.4855,0,U,44917,999,6220,0.00012312,1.553e-05,0,6925.338,95.592,548.656,545.75,PAYLOAD,LARGE,US,2020-01-07,AFETR,,2968663,172193964,0 STARLINK-1098,1 44917U 20001D   21052.59782369  .00001553  00000-0  12312-3 0  9993,2 44917  53.0568 336.0575 0002098  74.6366 285.4855 15.06403518 62204
2,GENERATED VIA SPACE-TRACK.ORG API,2021-02-22T18:33:28,18 SPCS,STARLINK-1098,2020-001D,EARTH,TEME,UTC,SGP4,2021-02-22T11:02:52.242432,15.06410383,0.0002136,53.056,332.1857,75.1979,284.9247,0,U,44917,999,6233,0.00016382,2.16e-05,0,6925.317,95.591,548.661,545.702,PAYLOAD,LARGE,US,2020-01-07,AFETR,,2969138,172245955,0 STARLINK-1098,1 44917U 20001D   21053.46032688  .00002160  00000-0  16382-3 0  9998,2 44917  53.0560 332.1857 0002136  75.1979 284.9247 15.06410383 62336
2,GENERATED VIA SPACE-TRACK.ORG API,2021-02-23T02:07:50,18 SPCS,STARLINK-1098,2020-001D,EARTH,TEME,UTC,SGP4,2021-02-22T20:36:06.746688,15.06399757,0.0002165,53.0559,330.3986,75.876,284.2469,0,U,44917,999,6239,-3.3649e-05,-7.83e-06,0,6925.349,95.592,548.714,545.715,PAYLOAD,LARGE,US,2020-01-07,AFETR,,2969386,172272829,0 STARLINK-1098,1 44917U 20001D   21053.85841142 -.00000783  00000-0 -33649-4 0  9991,2 44917  53.0559 330.3986 0002165  75.8760 284.2469 15.06399757 62390
2,GENERATED VIA SPACE-TRACK.ORG API,2021-02-23T06:36:15,18 SPCS,STARLINK-1098,2020-001D,EARTH,TEME,UTC,SGP4,2021-02-23T01:22:44.230368,15.0639723,0.0002143,53.0566,329.5052,76.4912,283.6316,0,U,44917,999,6242,4.1612e-06,-2.2e-06,0,6925.357,95.592,548.706,545.738,PAYLOAD,LARGE,US,2020-01-07,AFETR,,2969524,172278502,0 STARLINK-1098,1 44917U 20001D   21054.05745637 -.00000220  00000-0  41612-5 0  9991,2 44917  53.0566 329.5052 0002143  76.4912 283.6316 15.06397230 62426
2,GENERATED VIA SPACE-TRACK.ORG API,2021-02-23T18:20:59,18 SPCS,STARLINK-1098,2020-001D,EARTH,TEME,UTC,SGP4,2021-02-23T10:55:58.454688,15.06397073,0.0002123,53.0568,327.7184,76.2343,283.8882,0,U,44917,999,6248,-1.7921e-05,-5.49e-06,0,6925.358,95.592,548.693,545.752,PAYLOAD,LARGE,US,2020-01-07,AFETR,,2969798,172303041,0 STARLINK-1098,1 44917U 20001D   21054.45553767 -.00000549  00000-0 -17921-4 0  9996,2 44917  53.0568 327.7184 0002123  76.2343 283.8882 15.06397073 62489
2,GENERATED VIA SPACE-TRACK.ORG API,2021-02-24T03:10:10,18 SPCS,STARLINK-1098,2020-001D,EARTH,TEME,UTC,SGP4,2021-02-23T20:29:12.605568,15.06398169,0.0002126,53.0566,325.9313,76.5732,283.5494,0,U,44917,999,6254,-2.4027e-05,-6.4e-06,0,6925.354,95.592,548.691,545.747,PAYLOAD,LARGE,US,2020-01-07,AFETR,,2970025,172330306,0 STARLINK-1098,1 44917U 20001D   21054.85361812 -.00000640  00000-0 -24027-4 0  9995,2 44917  53.0566 325.9313 0002126  76.5732 283.5494 15.06398169 62549
2,GENERATED VIA SPACE-TRACK.ORG API,2021-02-24T06:36:12,18 SPCS,STARLINK-1098,2020-001D,EARTH,TEME,UTC,SGP4,2021-02-24T02:51:21.974112,15.06399473,0.000213,53.0567,324.7398,76.2043,283.9182,0,U,44917,999,6258,-1.8265e-05,-5.54e-06,0,6925.35,95.592,548.69,545.74,PAYLOAD,LARGE,US,2020-01-07,AFETR,,2970200,172336008,0 STARLINK-1098,1 44917U 20001D   21055.11900433 -.00000554  00000-0 -18265-4 0  9994,2 44917  53.0567 324.7398 0002130  76.2043 283.9182 15.06399473 62588
2,GENERATED VIA SPACE-TRACK.ORG API,2021-02-24T18:12:45,18 SPCS,STARLINK-1098,2020-001D,EARTH,TEME,UTC,SGP4,2021-02-24T10:49:03.689760,15.06401187,0.0002122,53.0567,323.2506,76.3769,283.7457,0,U,44917,999,6263,-2.626e-05,-6.73e-06,0,6925.345,95.592,548.679,545.74,PAYLOAD,LARGE,US,2020-01-07,AFETR,,2970471,172361394,0 STARLINK-1098,1 44917U 20001D   21055.45073715 -.00000673  00000-0 -26260-4 0  9991,2 44917  53.0567 323.2506 0002122  76.3769 283.7457 15.06401187 62635
2,GENERATED VIA SPACE-TRACK.ORG API,2021-02-25T17:25:25,18 SPCS,STARLINK-1098,2020-001D,EARTH,TEME,UTC,SGP4,2021-02-25T10:42:09.174528,15.06397268,0.0002136,53.0564,318.7831,77.226,282.8967,0,U,44917,999,6278,0.00010278,1.249e-05,0,6925.357,95.592,548.701,545.743,PAYLOAD,LARGE,US,2020-01-07,AFETR,,2971082,172419210,0 STARLINK-1098,1 44917U 20001D   21056.44593952  .00001249  00000-0  10278-3 0  9990,2 44917  53.0564 318.7831 0002136  77.2260 282.8967 15.06397268 62789
2,GENERATED VIA SPACE-TRACK.ORG API,2021-02-25T14:46:12,18 SPCS,STARLINK-1098,2020-001D,EARTH,TEME,UTC,SGP4,2021-02-25T10:42:09.174528,15.06397268,0.0002136,53.0564,318.7831,77.226,282.8967,0,U,44917,999,6278,0.00010278,1.249e-05,0,6925.357,95.592,548.701,545.743,PAYLOAD,LARGE,US,2020-01-07,AFETR,,2971060,172398860,0 STARLINK-1098,1 44917U 20001D   21056.44593952  .00001249  00000-0  10278-3 0  9990,2 44917  53.0564 318.7831 0002136  77.2260 282.8967 15.06397268 62789
2,GENERATED VIA SPACE-TRACK.ORG API,2021-02-26T04:57:03,18 SPCS,STARLINK-1098,2020-001D,EARTH,TEME,UTC,SGP4,2021-02-25T20:15:23.158656,15.06400047,0.000217,53.0564,316.9957,78.2731,281.8501,0,U,44917,999,6284,0.00010644,1.304e-05,0,6925.348,95.592,548.716,545.711,PAYLOAD,LARGE,US,2020-01-07,AFETR,,2971383,172444456,0 STARLINK-1098,1 44917U 20001D   21056.84401804  .00001304  00000-0  10644-3 0  9997,2 44917  53.0564 316.9957 0002170  78.2731 281.8501 15.06400047 62840
2,GENERATED VIA SPACE-TRACK.ORG API,2021-02-26T17:38:28,18 SPCS,STARLINK-1098,2020-001D,EARTH,TEME,UTC,SGP4,2021-02-26T10:35:14.231616,15.06403296,0.0002208,53.0563,314.3154,78.638,281.4857,0,U,44917,999,6293,0.00010615,1.3e-05,0,6925.338,95.592,548.733,545.674,PAYLOAD,LARGE,US,2020-01-07,AFETR,,2971575,172471795,0 STARLINK-1098,1 44917U 20001D   21057.44113694  .00001300  00000-0  10615-3 0  9995,2 44917  53.0563 314.3154 0002208  78.6380 281.4857 15.06403296 62935
2,GENERATED VIA SPACE-TRACK.ORG API,2021-02-26T22:16:12,18 SPCS,STARLINK-1098,2020-001D,EARTH,TEME,UTC,SGP4,2021-02-26T18:32:55.885056,15.06405185,0.0002253,53.0562,312.8261,79.4856,280.6387,0,U,44917,999,6298,0.00010198,1.238e-05,0,6925.333,95.592,548.758,545.637,PAYLOAD,LARGE,US,2020-01-07,AFETR,,2971903,172481882,0 STARLINK-1098,1 44917U 20001D   21057.77286904  .00001238  00000-0  10198-3 0  9992,2 44917  53.0562 312.8261 0002253  79.4856 280.6387 15.06405185 62986
2,GENERATED VIA SPACE-TRACK.ORG API,2021-02-27T04:47:06,18 SPCS,STARLINK-1098,2020-001D,EARTH,TEME,UTC,SGP4,2021-02-26T21:44:00.558528,15.06404789,0.0002258,53.0561,312.2304,79.5899,280.5345,0,U,44917,999,6300,9.2456e-05,1.096e-05,0,6925.334,95.592,548.763,545.635,PAYLOAD,LARGE,US,2020-01-07,AFETR,,2972031,172503467,0 STARLINK-1098,1 44917U 20001D   21057.90556202  .00001096  00000-0  92456-4 0  9998,2 44917  53.0561 312.2304 0002258  79.5899 280.5345 15.06404789 63006
2,GENERATED VIA SPACE-TRACK.ORG API,2021-02-27T17:42:33,18 SPCS,STARLINK-1098,2020-001D,EARTH,TEME,UTC,SGP4,2021-02-27T02:30:38.087136,15.06399894,0.0002176,53.0563,311.3408,74.1992,285.9237,0,U,44917,999,6303,1.8178e-05,-1.1e-07,0,6925.349,95.592,548.721,545.707,PAYLOAD,LARGE,US,2020-01-07,AFETR,,2972378,172533291,0 STARLINK-1098,1 44917U 20001D   21058.10460749 -.00000011  00000-0  18178-4 0  9997,2 44917  53.0563 311.3408 0002176  74.1992 285.9237 15.06399894 63039
2,GENERATED VIA SPACE-TRACK.ORG API,2021-02-27T06:56:11,18 SPCS,STARLINK-1098,2020-001D,EARTH,TEME,UTC,SGP4,2021-02-27T02:30:38.087136,15.06399894,0.0002176,53.0563,311.3408,74.1992,285.9237,0,U,44917,999,6303,1.8178e-05,-1.1e-07,0,6925.349,95.592,548.721,545.707,PAYLOAD,LARGE,US,2020-01-07,AFETR,,2972158,172509215,0 STARLINK-1098,1 44917U 20001D   21058.10460749 -.00000011  00000-0  18178-4 0  9997,2 44917  53.0563 311.3408 0002176  74.1992 285.9237 15.06399894 63039
2,GENERATED VIA SPACE-TRACK.ORG API,2021-02-27T22:56:12,18 SPCS,STARLINK-1098,2020-001D,EARTH,TEME,UTC,SGP4,2021-02-27T18:26:02.515488,15.06391139,0.0002235,53.0558,308.3583,82.8831,277.2412,0,U,44917,999,6313,-6.0737e-05,-1.186e-05,0,6925.376,95.593,548.789,545.693,PAYLOAD,LARGE,US,2020-01-07,AFETR,,2972556,172540299,0 STARLINK-1098,1 44917U 20001D   21058.76808467 -.00001186  00000-0 -60737-4 0  9995,2 44917  53.0558 308.3583 0002235  82.8831 277.2412 15.06391139 63131
2,GENERATED VIA SPACE-TRACK.ORG API,2021-02-28T04:17:12,18 SPCS,STARLINK-1098,2020-001D,EARTH,TEME,UTC,SGP4,2021-02-27T20:01:34.930848,15.06390524,0.0002236,53.0558,308.0604,83.001,277.1233,0,U,44917,999,6314,-6.5681e-05,-1.26e-05,0,6925.378,95.593,548.791,545.694,PAYLOAD,LARGE,US,2020-01-07,AFETR,,2972604,172560616,0 STARLINK-1098,1 44917U 20001D   21058.83443207 -.00001260  00000-0 -65681-4 0  9996,2 44917  53.0558 308.0604 0002236  83.0010 277.1233 15.06390524 63143
2,GENERATED VIA SPACE-TRACK.ORG API,2021-02-28T17:32:38,18 SPCS,STARLINK-1098,2020-001D,EARTH,TEME,UTC,SGP4,2021-02-28T02:23:44.529216,15.06388891,0.0002252,53.0558,306.8696,80.7521,279.3723,0,U,44917,999,6318,-3.9594e-05,-8.71e-06,0,6925.383,95.593,548.807,545.688,PAYLOAD,LARGE,US,2020-01-07,AFETR,,2973004,172591555,0 STARLINK-1098,1 44917U 20001D   21059.09982094 -.00000871  00000-0 -39594-4 0  9998,2 44917  53.0558 306.8696 0002252  80.7521 279.3723 15.06388891 63185
